{
  "type": "FeatureCollection",
  "features": [
    {
      "type": "Feature",
      "properties": { "speed_kmh": 45.0 },
      "geometry": { "type": "Point", "coordinates": [13.4005, 52.5200] }
    },
    {
      "type": "Feature",
      "properties": { "speed_kmh": 40.0 },
      "geometry": { "type": "Point", "coordinates": [13.4050, 52.5200] }
    },
    {
      "type": "Feature",
      "properties": { "speed_kmh": 10.0 },
      "geometry": { "type": "Point", "coordinates": [13.4005, 52.5000] }
    },
    {
      "type": "Feature",
      "properties": { "speed_kmh": 30.0 },
      "geometry": { "type": "Point", "coordinates": [13.3000, 52.3000] }
    }
  ]
}
