{
  "type": "FeatureCollection",
  "features": [
    {
      "type": "Feature",
      "properties": {"highway": "primary", "maxspeed_kmh": 50},
      "geometry": {
        "type": "LineString",
        "coordinates": [[13.38, 52.51], [13.39, 52.51], [13.40, 52.51], [13.41, 52.51]]
      }
    },
    {
      "type": "Feature",
      "properties": {"highway": "primary", "maxspeed_kmh": 50},
      "geometry": {
        "type": "LineString",
        "coordinates": [[13.38, 52.52], [13.39, 52.52], [13.40, 52.52], [13.41, 52.52]]
      }
    },
    {
      "type": "Feature",
      "properties": {"highway": "primary", "maxspeed_kmh": 50},
      "geometry": {
        "type": "LineString",
        "coordinates": [[13.38, 52.53], [13.39, 52.53], [13.40, 52.53], [13.41, 52.53]]
      }
    },
    {
      "type": "Feature",
      "properties": {"highway": "primary", "maxspeed_kmh": 50},
      "geometry": {
        "type": "LineString",
        "coordinates": [[13.38, 52.54], [13.39, 52.54], [13.40, 52.54], [13.41, 52.54]]
      }
    },
    {
      "type": "Feature",
      "properties": {"highway": "primary", "maxspeed_kmh": 50},
      "geometry": {
        "type": "LineString",
        "coordinates": [[13.38, 52.51], [13.38, 52.52], [13.38, 52.53], [13.38, 52.54]]
      }
    },
    {
      "type": "Feature",
      "properties": {"highway": "primary", "maxspeed_kmh": 50},
      "geometry": {
        "type": "LineString",
        "coordinates": [[13.39, 52.51], [13.39, 52.52], [13.39, 52.53], [13.39, 52.54]]
      }
    },
    {
      "type": "Feature",
      "properties": {"highway": "primary", "maxspeed_kmh": 50},
      "geometry": {
        "type": "LineString",
        "coordinates": [[13.40, 52.51], [13.40, 52.52], [13.40, 52.53], [13.40, 52.54]]
      }
    },
    {
      "type": "Feature",
      "properties": {"highway": "primary", "maxspeed_kmh": 50},
      "geometry": {
        "type": "LineString",
        "coordinates": [[13.41, 52.51], [13.41, 52.52], [13.41, 52.53], [13.41, 52.54]]
      }
    }
  ]
}
